OBJECT_NAME,OBJECT_ID,EPOCH,MEAN_MOTION,ECCENTRICITY,INCLINATION,RA_OF_ASC_NODE,ARG_OF_PERICENTER,MEAN_ANOMALY,EPHEMERIS_TYPE,CLASSIFICATION_TYPE,NORAD_CAT_ID,ELEMENT_SET_NO,REV_AT_EPOCH,BSTAR,MEAN_MOTION_DOT,MEAN_MOTION_DDOT
INMARSAT 4-F3,2008-039A,2026-06-12T12:44:03.616224,1.00271818,.00028368,4.2898,31.6197,53.7848,268.4603,0,U,33278,999,4649,0,-.129E-5,0
NIMIQ 4,2008-044A,2026-06-13T04:23:38.668416,1.00273364,.00021042,0.0038,352.8135,72.6698,179.9314,0,U,33373,999,6494,0,-.208E-5,0
GALAXY 19 (G-19),2008-045A,2026-06-13T05:50:53.428416,1.00270356,.00024276,0.0204,347.2822,100.8054,164.1976,0,U,33376,999,6486,0,0,0
ASTRA 1M,2008-057A,2026-06-13T06:24:05.050368,1.00269907,.00046212,0.2861,82.3952,22.4097,272.1689,0,U,33436,999,4569,0,.133E-5,0
EUTELSAT HOTBIRD 13C,2008-065A,2026-06-13T06:04:14.452320,1.00272335,.0003292,2.9398,79.2360,2.3870,220.7120,0,U,33459,999,4730,0,-.272E-5,0
EXPRESS-AM44,2009-007A,2026-06-13T02:50:03.603264,1.00271227,.00039504,3.4517,78.4471,357.8386,216.6663,0,U,33595,999,5224,0,-.79E-6,0
NSS-9,2009-008A,2026-06-13T05:28:06.621024,1.00272487,.00018858,1.2512,82.6914,348.0868,95.8680,0,U,33749,999,6348,0,.84E-6,0
TELSTAR 11N,2009-009A,2026-06-13T06:07:51.604896,1.00269143,.00021822,0.0175,8.7811,70.6058,236.5874,0,U,34111,999,4620,0,-.239E-5,0
WGS F2 (USA 204),2009-017A,2026-06-12T04:55:04.047744,1.00271719,.00004198,0.0178,341.3812,274.7080,135.7341,0,U,34713,999,4556,0,.83E-6,0
SES-7 (PROTOSTAR 2),2009-027A,2026-06-13T06:49:15.724992,1.00271518,.00005748,0.0529,75.4568,255.0431,141.6837,0,U,34941,999,6259,0,-.333E-5,0
MEASAT-3A,2009-032A,2026-06-13T05:21:29.755584,1.00271073,.0002805,0.0299,26.5093,52.2192,63.1907,0,U,35362,999,799,0,-.98E-6,0
GOES 14,2009-033A,2026-06-13T06:59:37.231296,1.00112049,.00017326,1.6796,83.0867,9.8620,57.6388,0,U,35491,999,655,0,-.265E-5,0
FM-5,2009-034A,2026-06-12T21:20:38.455008,1.00270229,.00008245,0.0174,296.4738,8.6935,190.0568,0,U,35493,999,4660,0,-.186E-5,0
TERRESTAR-1,2009-035A,2026-06-13T04:47:38.730912,1.00272844,.00027797,5.1776,48.8021,27.8537,145.7631,0,U,35496,999,6209,0,-.48E-6,0
ASIASAT 5,2009-042A,2026-06-13T02:25:38.788032,1.00268808,.00015858,0.0213,296.0782,132.8162,329.4238,0,U,35696,999,6166,0,-.294E-5,0
JCSAT-12 (JCSAT-RA),2009-044A,2026-06-13T06:56:15.055296,1.00269779,.00007576,0.0144,30.6450,285.9500,181.1140,0,U,35755,999,6157,0,-.316E-5,0
OPTUS D3,2009-044B,2026-06-12T15:39:10.366848,1.00270383,.00028085,0.8699,269.2954,174.2722,208.3475,0,U,35756,999,6152,0,-.131E-5,0
NIMIQ 5,2009-050A,2026-06-13T05:31:14.138400,1.00271379,.00026395,0.0217,287.4374,150.2942,193.9378,0,U,35873,999,6130,0,-.244E-5,0
AMAZONAS 2,2009-054A,2026-06-13T05:31:14.081376,1.00269934,.00031878,1.8050,83.1001,355.3634,193.9043,0,U,35942,999,6114,0,-.248E-5,0
COMSATBW-1,2009-054B,2026-06-13T01:28:31.332864,1.00272276,.00027681,0.0711,77.5647,10.5252,258.4357,0,U,35943,999,6126,0,.37E-6,0
NSS-12,2009-058A,2026-06-13T01:26:46.500288,1.00271741,.00045189,0.0792,67.8711,342.0721,290.1263,0,U,36032,999,6087,0,.85E-6,0
THOR 6,2009-058B,2026-06-12T09:46:21.296352,1.00282590,.00017221,0.0136,340.8299,120.4502,305.2197,0,U,36033,999,6095,0,0,0
INTELSAT 14 (IS-14),2009-064A,2026-06-13T06:05:44.308320,1.00270868,.00022032,0.0127,31.8170,42.2959,233.9087,0,U,36097,999,6056,0,-.261E-5,0
EUTELSAT 36B,2009-065A,2026-06-13T06:32:34.235808,1.00272190,.00057984,0.4811,81.0546,359.7511,329.4145,0,U,36101,999,6066,0,.124E-5,0
INTELSAT 15 (IS-15),2009-067A,2026-06-13T01:34:53.222592,1.00271160,.00020479,0.0144,35.4832,49.8894,284.8876,0,U,36106,999,4118,0,-.172E-5,0
WGS F3 (USA 211),2009-068A,2026-06-12T16:00:15.846048,1.00271019,.00001522,0.3295,85.7792,309.8732,335.4268,0,U,36108,999,4654,0,.78E-6,0
DIRECTV 12,2009-075A,2026-06-12T22:58:35.014080,1.00271896,.0000251,0.0420,159.4842,218.8664,124.8531,0,U,36131,999,4651,0,-.9E-6,0
BEIDOU-2 G1,2010-001A,2026-06-13T03:19:53.899392,1.00272041,.00023514,4.2827,60.4186,301.3239,90.1703,0,U,36287,999,6013,0,-.27E-5,0
SDO,2010-005A,2026-06-13T06:00:40.773888,1.00270126,.00016703,34.6433,86.4025,51.4849,111.7994,0,U,36395,999,6002,0,-.88E-6,0
INTELSAT 16 (IS-16),2010-006A,2026-06-13T06:31:15.915072,1.00270815,.00018579,0.0112,344.3619,116.1658,182.6836,0,U,36397,999,5961,0,-.232E-5,0
EWS-G2 (GOES 15),2010-008A,2026-06-13T01:28:38.821152,1.00275603,.0005372,1.2659,82.9245,41.3683,222.9179,0,U,36411,999,5959,0,.3E-6,0
ECHOSTAR 14,2010-010A,2026-06-12T22:53:57.956928,1.00272283,.00023134,0.0582,88.7852,13.1732,23.9231,0,U,36499,999,4651,0,.14E-6,0
