INMARSAT 4-F3           
1 33278U 08039A   26163.53059741 -.00000129  00000+0  00000+0 0  9996
2 33278   4.2898  31.6197 0002836  53.7848 268.4603  1.00271818 46497
NIMIQ 4                 
1 33373U 08044A   26164.18308644 -.00000208  00000+0  00000+0 0  9997
2 33373   0.0038 352.8135 0002104  72.6698 179.9314  1.00273364 64947
GALAXY 19 (G-19)        
1 33376U 08045A   26164.24367394  .00000000  00000+0  00000+0 0  9994
2 33376   0.0204 347.2822 0002427 100.8054 164.1976  1.00270356 64863
ASTRA 1M                
1 33436U 08057A   26164.26672512  .00000133  00000+0  00000+0 0  9994
2 33436   0.2861  82.3952 0004621  22.4097 272.1689  1.00269907 45697
EUTELSAT HOTBIRD 13C    
1 33459U 08065A   26164.25294505 -.00000272  00000+0  00000+0 0  9994
2 33459   2.9398  79.2360 0003292   2.3870 220.7120  1.00272335 47301
EXPRESS-AM44            
1 33595U 09007A   26164.11809726 -.00000079  00000+0  00000+0 0  9999
2 33595   3.4517  78.4471 0003950 357.8386 216.6663  1.00271227 52240
NSS-9                   
1 33749U 09008A   26164.22785441  .00000084  00000+0  00000+0 0  9995
2 33749   1.2512  82.6914 0001885 348.0868  95.8680  1.00272487 63486
TELSTAR 11N             
1 34111U 09009A   26164.25545839 -.00000239  00000+0  00000+0 0  9991
2 34111   0.0175   8.7811 0002182  70.6058 236.5874  1.00269143 46202
WGS F2 (USA 204)        
1 34713U 09017A   26163.20490796  .00000083  00000+0  00000+0 0  9999
2 34713   0.0178 341.3812 0000419 274.7080 135.7341  1.00271719 45562
SES-7 (PROTOSTAR 2)     
1 34941U 09027A   26164.28420978 -.00000333  00000+0  00000+0 0  9996
2 34941   0.0529  75.4568 0000574 255.0431 141.6837  1.00271518 62597
MEASAT-3A               
1 35362U 09032A   26164.22326106 -.00000098  00000+0  00000+0 0  9990
2 35362   0.0299  26.5093 0002805  52.2192  63.1907  1.00271073  7994
GOES 14                 
1 35491U 09033A   26164.29140314 -.00000265  00000+0  00000+0 0  9992
2 35491   1.6796  83.0867 0001732   9.8620  57.6388  1.00112049  6554
FM-5                    
1 35493U 09034A   26163.88933397 -.00000186  00000+0  00000+0 0  9992
2 35493   0.0174 296.4738 0000824   8.6935 190.0568  1.00270229 46600
TERRESTAR-1             
1 35496U 09035A   26164.19975383 -.00000048  00000+0  00000+0 0  9999
2 35496   5.1776  48.8021 0002779  27.8537 145.7631  1.00272844 62097
ASIASAT 5               
1 35696U 09042A   26164.10114338 -.00000294  00000+0  00000+0 0  9998
2 35696   0.0213 296.0782 0001585 132.8162 329.4238  1.00268808 61666
JCSAT-12 (JCSAT-RA)     
1 35755U 09044A   26164.28906314 -.00000316  00000+0  00000+0 0  9993
2 35755   0.0144  30.6450 0000757 285.9500 181.1140  1.00269779 61578
OPTUS D3                
1 35756U 09044B   26163.65220332 -.00000131  00000+0  00000+0 0  9998
2 35756   0.8699 269.2954 0002808 174.2722 208.3475  1.00270383 61527
NIMIQ 5                 
1 35873U 09050A   26164.23002475 -.00000244  00000+0  00000+0 0  9991
2 35873   0.0217 287.4374 0002639 150.2942 193.9378  1.00271379 61306
AMAZONAS 2              
1 35942U 09054A   26164.23002409 -.00000248  00000+0  00000+0 0  9993
2 35942   1.8050  83.1001 0003187 355.3634 193.9043  1.00269934 61145
COMSATBW-1              
1 35943U 09054B   26164.06147376  .00000037  00000+0  00000+0 0  9993
2 35943   0.0711  77.5647 0002768  10.5252 258.4357  1.00272276 61265
NSS-12                  
1 36032U 09058A   26164.06026042  .00000085  00000+0  00000+0 0  9996
2 36032   0.0792  67.8711 0004518 342.0721 290.1263  1.00271741 60878
THOR 6                  
1 36033U 09058B   26163.40719093  .00000000  00000+0  00000+0 0  9996
2 36033   0.0136 340.8299 0001722 120.4502 305.2197  1.00282590 60952
INTELSAT 14 (IS-14)     
1 36097U 09064A   26164.25398505 -.00000261  00000+0  00000+0 0  9998
2 36097   0.0127  31.8170 0002203  42.2959 233.9087  1.00270868 60566
EUTELSAT 36B            
1 36101U 09065A   26164.27261847  .00000124  00000+0  00000+0 0  9992
2 36101   0.4811  81.0546 0005798 359.7511 329.4145  1.00272190 60669
INTELSAT 15 (IS-15)     
1 36106U 09067A   26164.06589378 -.00000172  00000+0  00000+0 0  9992
2 36106   0.0144  35.4832 0002047  49.8894 284.8876  1.00271160 41182
WGS F3 (USA 211)        
1 36108U 09068A   26163.66685007  .00000078  00000+0  00000+0 0  9990
2 36108   0.3295  85.7792 0000152 309.8732 335.4268  1.00271019 46548
DIRECTV 12              
1 36131U 09075A   26163.95734970 -.00000090  00000+0  00000+0 0  9995
2 36131   0.0420 159.4842 0000251 218.8664 124.8531  1.00271896 46512
BEIDOU-2 G1             
1 36287U 10001A   26164.13881828 -.00000270  00000+0  00000+0 0  9994
2 36287   4.2827  60.4186 0002351 301.3239  90.1703  1.00272041 60135
SDO                     
1 36395U 10005A   26164.25047192 -.00000088  00000+0  00000+0 0  9996
2 36395  34.6433  86.4025 0001670  51.4849 111.7994  1.00270126 60020
INTELSAT 16 (IS-16)     
1 36397U 10006A   26164.27171198 -.00000232  00000+0  00000+0 0  9996
2 36397   0.0112 344.3619 0001857 116.1658 182.6836  1.00270815 59612
EWS-G2 (GOES 15)        
1 36411U 10008A   26164.06156043  .00000030  00000+0  00000+0 0  9999
2 36411   1.2659  82.9245 0005372  41.3683 222.9179  1.00275603 59596
ECHOSTAR 14             
1 36499U 10010A   26163.95414302  .00000014  00000+0  00000+0 0  9992
2 36499   0.0582  88.7852 0002313  13.1732  23.9231  1.00272283 46513
